      2.10          N: GNSS NAV DATA                        RINEX VERSION / TYPE
fic2rin                                 10/24/2022 00:17:45 PGM / RUN BY / DATE
                                                            END OF HEADER
18 22 10 23 10  0  0.0  .467570498586D-05 -.135287336889D-10  .000000000000D+00
     .790000000000D+02  .165312500000D+02  .404516849750D-08  .278592350291D+01
     .979751348495D-06  .292575196363D-02  .120662152767D-04  .515372610474D+04
     .360000000000D+05 -.912696123123D-07 -.128343488376D+00 -.111758708954D-07
     .973006373735D+00  .154781250000D+03  .311512622288D+01 -.772889336800D-08
     .298226708054D-09  .100000000000D+01  .223300000000D+04  .000000000000D+00
     .240000000000D+01  .000000000000D+00 -.838190317154D-08  .847000000000D+03
     .288000000000D+05  .400000000000D+01
28 22 10 23 10  0  0.0  .325202010572D-03 -.545696821064D-11  .000000000000D+00
     .440000000000D+02  .465000000000D+02  .484805908398D-08 -.104174822134D+01
     .255368649960D-05  .163875500439D-01  .403076410294D-05  .515364975548D+04
     .360000000000D+05 -.292435288429D-06 -.214960459301D+01  .558793544769D-07
     .966483889110D+00  .310906250000D+03 -.124916148685D+01 -.866178936972D-08
     .398230873629D-09  .100000000000D+01  .223300000000D+04  .000000000000D+00
     .240000000000D+01  .630000000000D+02 -.111758708954D-07  .440000000000D+02
     .288000000000D+05  .400000000000D+01
22 22 10 23  9 59 44.0  .350898597389D-03  .704858393874D-11  .000000000000D+00
     .100000000000D+02 -.674687500000D+02  .457947646786D-08 -.169696777388D+01
    -.349059700966D-05  .134854960488D-01  .849366188049D-05  .515374782944D+04
     .359840000000D+05  .299885869026D-06  .202991375598D+01  .210478901863D-06
     .961704142221D+00  .215875000000D+03 -.184405331727D+01 -.797783230874D-08
    -.602882255323D-09  .100000000000D+01  .223300000000D+04  .000000000000D+00
     .240000000000D+01  .000000000000D+00 -.838190317154D-08  .100000000000D+02
     .301200000000D+05  .400000000000D+01
22 22 10 23 11 59 44.0  .350948888808D-03  .704858393874D-11  .000000000000D+00
     .110000000000D+02 -.668437500000D+02  .475734101949D-08 -.646705656058D+00
    -.347569584846D-05  .134860151447D-01  .800192356110D-05  .515375119209D+04
     .431840000000D+05 -.176951289177D-06  .202985426349D+01  .128522515297D-06
     .961697728788D+00  .228843750000D+03 -.184417984798D+01 -.845713798803D-08
    -.573238163385D-09  .100000000000D+01  .223300000000D+04  .000000000000D+00
     .240000000000D+01  .000000000000D+00 -.838190317154D-08  .110000000000D+02
     .360000000000D+05  .400000000000D+01
2  22 10 23 12  0  0.0 -.641145277768D-03  .170530256582D-11  .000000000000D+00
     .910000000000D+02 -.718750000000D+01  .397909431668D-08  .286833388859D+01
    -.385567545891D-06  .200620349497D-01  .130701810122D-04  .515490253830D+04
     .432000000000D+05  .350177288055D-06 -.226851340377D+00  .111758708954D-07
     .967020537201D+00  .124375000000D+03 -.138923156709D+01 -.742388066300D-08
     .123933733766D-09  .100000000000D+01  .223300000000D+04  .000000000000D+00
     .340000000000D+01  .000000000000D+00 -.176951289177D-07  .910000000000D+02
     .360000000000D+05  .400000000000D+01
1  22 10 23 12  0  0.0  .263030175120D-03 -.602540239925D-11  .000000000000D+00
     .710000000000D+02  .231250000000D+02  .361157900819D-08 -.266953099024D+01
     .970438122749D-06  .120095916791D-01  .127684324980D-04  .515366081047D+04
     .432000000000D+05  .104308128357D-06 -.132534252744D+00 -.119209289551D-06
     .989165908742D+00  .146312500000D+03  .941759224760D+00 -.737030700287D-08
     .366443835285D-09  .100000000000D+01  .223300000000D+04  .000000000000D+00
     .240000000000D+01  .000000000000D+00  .465661287308D-08  .710000000000D+02
     .360000000000D+05  .400000000000D+01
5  22 10 23 12  0  0.0 -.101482030004D-03 -.147792889038D-11  .000000000000D+00
     .140000000000D+02  .490937500000D+02  .499413659726D-08 -.159225604180D+00
     .268220901489D-05  .596244656481D-02  .500492751598D-05  .515354566383D+04
     .432000000000D+05 -.577419996262D-07  .855824562631D+00  .745058059692D-08
     .962682701290D+00  .283437500000D+03  .113770530890D+01 -.851321175230D-08
     .376801409577D-09  .100000000000D+01  .223300000000D+04  .000000000000D+00
     .240000000000D+01  .000000000000D+00 -.111758708954D-07  .140000000000D+02
     .360000000000D+05  .400000000000D+01
6  22 10 23 12  0  0.0  .499166548252D-03  .104591890704D-10  .000000000000D+00
     .560000000000D+02  .186562500000D+02  .371658338204D-08 -.241374478774D+01
     .109337270260D-05  .254064798355D-02  .133030116558D-04  .515354658318D+04
     .432000000000D+05  .260770320892D-07 -.140808729523D+00  .465661287308D-07
     .988455575702D+00  .136125000000D+03 -.913289333595D+00 -.751102715014D-08
     .315370279295D-09  .100000000000D+01  .223300000000D+04  .000000000000D+00
     .240000000000D+01  .000000000000D+00  .372529029846D-08  .560000000000D+02
     .360000000000D+05  .400000000000D+01
4  22 10 23 12  0  0.0 -.989139080048D-04  .625277607469D-11  .000000000000D+00
     .221000000000D+03 -.695312500000D+02  .465055085697D-08 -.760548728227D+00
    -.373832881451D-05  .208907027263D-02  .803358852863D-05  .515374144173D+04
     .432000000000D+05  .186264514923D-07  .198140269027D+01  .186264514923D-08
     .961653795895D+00  .225250000000D+03 -.311507200860D+01 -.814141055100D-08
    -.582881422208D-09  .100000000000D+01  .223300000000D+04  .000000000000D+00
     .240000000000D+01  .000000000000D+00 -.465661287308D-08  .989000000000D+03
     .360000000000D+05  .400000000000D+01
3  22 10 23 12  0  0.0 -.367262866348D-03 -.352429196937D-11  .000000000000D+00
     .950000000000D+02  .408125000000D+02  .460804908660D-08  .251399459042D+01
     .201165676117D-05  .445839215536D-02  .432506203651D-05  .515378176689D+04
     .432000000000D+05 -.745058059692D-08  .899534781783D+00 -.912696123123D-07
     .975626578512D+00  .301875000000D+03  .105233524391D+01 -.815891127998D-08
     .312870175156D-09  .100000000000D+01  .223300000000D+04  .000000000000D+00
     .485000000000D+01  .000000000000D+00  .186264514923D-08  .950000000000D+02
     .360000000000D+05  .400000000000D+01
16 22 10 23 12  0  0.0 -.526541378349D-03 -.341060513165D-12  .000000000000D+00
     .100000000000D+02  .512500000000D+02  .467555189836D-08  .481749750559D+00
     .284053385258D-05  .128900797572D-01  .319443643093D-05  .515372740746D+04
     .432000000000D+05 -.819563865662D-07 -.215304942422D+01  .199303030968D-06
     .967287298850D+00  .320250000000D+03  .734865681374D+00 -.855714215360D-08
     .145006040084D-09  .100000000000D+01  .223300000000D+04  .000000000000D+00
     .240000000000D+01  .000000000000D+00 -.102445483208D-07  .100000000000D+02
     .360000000000D+05  .400000000000D+01
12 22 10 23 12  0  0.0 -.295601785183D-03 -.443378667114D-11  .000000000000D+00
     .170000000000D+02  .576875000000D+02  .460554898246D-08  .226382995932D+01
     .283308327198D-05  .855268316809D-02  .342912971973D-05  .515371837616D+04
     .432000000000D+05  .745058059692D-07 -.217149611023D+01 -.949949026108D-07
     .967489207877D+00  .313937500000D+03  .131693426534D+01 -.825641534141D-08
     .285726187357D-09  .100000000000D+01  .223300000000D+04  .000000000000D+00
     .240000000000D+01  .000000000000D+00 -.125728547573D-07  .170000000000D+02
     .360000000000D+05  .400000000000D+01
10 22 10 23 12  0  0.0 -.872230157256D-05 -.159161572810D-11  .000000000000D+00
     .290000000000D+02  .456875000000D+02  .470162441296D-08  .161430241914D+01
     .242143869400D-05  .806251727045D-02  .475719571114D-05  .515368127251D+04
     .432000000000D+05 -.165775418282D-06  .896836521550D+00  .197440385818D-06
     .975404987384D+00  .297531250000D+03 -.250759325151D+01 -.836391981940D-08
     .351086052715D-09  .100000000000D+01  .223300000000D+04  .000000000000D+00
     .340000000000D+01  .000000000000D+00  .232830643654D-08  .290000000000D+02
     .360000000000D+05  .400000000000D+01
8  22 10 23 12  0  0.0 -.902293249965D-04 -.181898940355D-11  .000000000000D+00
     .190000000000D+02 -.842812500000D+02  .464733643736D-08 -.410190071114D+00
    -.439397990704D-05  .765833735932D-02  .642985105515D-05  .515360440254D+04
     .432000000000D+05  .126659870148D-06 -.121804516810D+01  .353902578354D-07
     .961422548045D+00  .253406250000D+03  .164879201778D+00 -.835249077191D-08
    -.411802867528D-09  .100000000000D+01  .223300000000D+04  .000000000000D+00
     .240000000000D+01  .000000000000D+00  .512227416039D-08  .190000000000D+02
     .360000000000D+05  .400000000000D+01
30 22 10 23 12  0  0.0 -.537151005119D-03  .113686837722D-12  .000000000000D+00
     .250000000000D+02  .499375000000D+02  .475519807309D-08  .287614290873D+01
     .245496630669D-05  .593624636531D-02  .130143016577D-04  .515370203781D+04
     .432000000000D+05  .186264514923D-08  .300729866108D+01 -.149011611938D-07
     .936234495616D+00  .113250000000D+03 -.266030787691D+01 -.801604818630D-08
     .100361323309D-09  .100000000000D+01  .223300000000D+04  .000000000000D+00
     .240000000000D+01  .000000000000D+00  .372529029846D-08  .250000000000D+02
     .360000000000D+05  .400000000000D+01
31 22 10 23 12  0  0.0 -.197758432478D-03 -.125055521494D-11  .000000000000D+00
     .540000000000D+02  .413125000000D+02  .428946438769D-08  .244816577991D+01
     .201910734177D-05  .106514069485D-01  .124908983707D-04  .515361427498D+04
     .432000000000D+05 -.162050127983D-06  .301701173492D+01 -.102445483208D-06
     .955257954625D+00  .139468750000D+03  .448755925674D+00 -.782532595624D-08
     .435732435719D-10  .100000000000D+01  .223300000000D+04  .000000000000D+00
     .240000000000D+01  .000000000000D+00 -.135041773319D-07  .540000000000D+02
     .360000000000D+05  .400000000000D+01
